id,spkid,full_name,pdes,name,prefix,neo,pha,H,diameter,albedo,diameter_sigma,orbit_id,epoch,epoch_mjd,epoch_cal,equinox,e,a,q,i,om,w,ma,ad,n,tp,tp_cal,per,per_y,moid,moid_ld,sigma_e,sigma_a,sigma_q,sigma_i,sigma_om,sigma_w,sigma_ma,sigma_ad,sigma_n,sigma_tp,sigma_per,class,rms
bK19M01F,3842939,       (2019 MF1),2019 MF1,,,Y,Y,21.8,,,,22,2459000.5,59000,20200531,J2000,0.318810428,1.536437537,1.046605229,9.756613807,285.294013,5.328662838,169.1784073,2.026269845,0.517525449,2458673.601,20190709.1,695.6179659,1.904498195,0.0310636,12.08902121,1.10E-06,2.69E-06,1.60E-07,3.16E-05,2.42E-05,3.51E-05,0.00044661,3.54E-06,1.36E-06,3.19E-05,0.0018243,AMO,0.31422
bK19M03S,3843090,       (2019 MS3),2019 MS3,,,Y,Y,20.3,,,,JPL 19,2459000.5,59000,20200531,J2000,0.719678267,2.632143002,0.737846887,8.612492786,139.0222542,231.4920273,51.52299827,4.526439117,0.230802152,2458777.266,20191020.77,1559.777486,4.270438019,0.0455957,17.74447857,2.90E-06,2.34E-05,1.05E-06,2.28E-05,9.09E-05,9.81E-05,0.00070062,4.03E-05,3.08E-06,6.34E-05,0.020836,APO,0.47441
bK19N00A,3843061,       (2019 NA),2019 NA,,,Y,Y,21.8,,,,8,2459000.5,59000,20200531,J2000,0.568658824,1.979457912,0.853821703,7.767048897,207.2660761,141.2259288,98.1263595,3.10509412,0.353903344,2458723.231,20190827.73,1017.226896,2.785015459,0.0282281,10.98552968,1.49E-05,6.07E-05,3.29E-06,0.0002205,0.00088189,0.0007982,0.0044443,9.53E-05,1.63E-05,0.00022857,0.046822,APO,0.43436
bK19N02A,3843128,       (2019 NA2),2019 NA2,,,Y,Y,20.7,,,,JPL 1,2458668.5,58668,20190704,J2000,0.641777072,1.848840844,0.66229718,34.44113277,78.63737752,284.7720273,328.8904378,3.035384509,0.392062029,2458747.849,20190921.35,918.2220493,2.513954961,0.0377846,14.70463278,0.013149,0.070197,0.0017536,1.2082,0.53133,0.4897,1.809,0.11525,0.022329,0.19844,52.295,APO,0.29471
bK19N02E,3843131,       (2019 NE2),2019 NE2,,,Y,Y,21.1,,,,9,2459000.5,59000,20200531,J2000,0.728829604,1.730049251,0.469138141,8.473154403,267.9428033,124.1364813,119.1463697,2.990960361,0.433128113,2458725.417,20190829.92,831.1628567,2.275599881,0.0459282,17.87387759,1.16E-06,6.37E-06,6.35E-07,3.14E-05,5.31E-05,9.38E-05,0.0006338,1.10E-05,2.39E-06,5.92E-05,0.0045927,APO,0.29898
bK19N02Y,3843155,       (2019 NY2),2019 NY2,,,Y,Y,21.2,,,,8,2459000.5,59000,20200531,J2000,0.441322122,1.749336976,0.97731587,11.34786502,139.7932978,199.6150925,108.4065692,2.521358081,0.425984562,2458746.015,20190919.52,845.1010489,2.313760572,0.0158542,6.169979014,3.17E-06,9.62E-06,2.27E-07,4.66E-05,0.00012327,8.49E-05,0.00089601,1.39E-05,3.51E-06,4.52E-05,0.0069702,APO,0.54856
bK19N04O,3843182,       (2019 NO4),2019 NO4,,,Y,Y,22,,,,JPL 7,2458675.5,58675,20190711,J2000,0.656054809,1.517462697,0.521923997,12.81531101,127.9819524,269.1972433,327.2332158,2.513001397,0.527262686,2458737.645,20190911.15,682.7716228,1.869326825,0.0362666,14.11387272,0.0019856,0.0059162,0.00097828,0.039449,0.010479,0.0077894,0.23882,0.0097975,0.0030835,0.089507,3.9929,APO,0.41734
bK19N07D,3843319,       (2019 ND7),2019 ND7,,,Y,Y,21.4,,,,JPL 7,2459000.5,59000,20200531,J2000,0.575023249,1.147851429,0.487810171,34.47984582,297.3951466,114.7410543,211.5791515,1.807892688,0.801448379,2459185.691,20201202.19,449.186759,1.229806322,0.00257741,1.00305065,9.89E-07,8.79E-07,7.79E-07,3.37E-05,1.11E-05,3.95E-05,0.00020016,1.39E-06,9.21E-07,0.00046243,0.00051618,APO,0.51614
bK19O00O,3843341,       (2019 OO),2019 OO,,,Y,Y,21.3,,,,JPL 11,2459000.5,59000,20200531,J2000,0.50225528,1.635060569,0.813842766,32.67677668,132.1010429,252.9872419,109.3839764,2.456278372,0.471414901,2458768.467,20191011.97,763.6585081,2.090783047,0.0411508,16.01465684,9.40E-07,2.41E-06,3.49E-07,4.92E-05,2.24E-05,3.92E-05,0.00023445,3.61E-06,1.04E-06,6.10E-05,0.0016849,APO,0.4972
bK19O00T,3843348,       (2019 OT),2019 OT,,,Y,Y,20.6,,,,14,2459000.5,59000,20200531,J2000,0.549138601,1.712404519,0.772057098,47.24445325,302.153133,285.4406775,159.9470099,2.652751941,0.439839801,2458636.852,20190602.35,818.4798177,2.240875613,0.023703,9.22449651,0.00029574,0.0012119,4.00E-05,0.012799,0.00060535,0.020534,0.17729,0.0018775,0.00046694,0.017036,0.8689,APO,0.38669
bK19O01M,3843363,       (2019 OM1),2019 OM1,,,Y,Y,21.4,,,,JPL 7,2459000.5,59000,20200531,J2000,0.598029712,1.896629376,0.762388656,6.167592403,346.6826887,52.66706561,90.36272685,3.030870096,0.377337845,2458761.026,20191004.53,954.0521976,2.61205256,0.0312992,12.18070966,3.79E-06,1.52E-05,1.14E-06,3.65E-05,8.80E-05,0.00012462,0.0010492,2.43E-05,4.53E-06,9.50E-05,0.01145,APO,0.27904
bK19O01R,3843371,       (2019 OR1),2019 OR1,,,Y,Y,21,,,,9,2459000.5,59000,20200531,J2000,0.38005777,0.959256135,0.594683388,18.27999221,236.8801423,297.6980009,56.09456645,1.323828882,1.049064512,2458947.029,20200407.53,343.1628808,0.939528763,0.0055299,2.152071183,5.29E-05,1.78E-05,3.97E-05,0.0022179,0.0028696,0.0031949,0.015547,2.45E-05,2.92E-05,0.013334,0.009536,ATE,0.27234
bK19O02Q,3843394,       (2019 OQ2),2019 OQ2,,,Y,Y,20.2,,,,18,2459000.5,59000,20200531,J2000,0.603447873,1.447775938,0.574118627,4.107373929,200.4966335,256.7301671,98.29999554,2.321433248,0.565785799,2458826.759,20191209.26,636.2832027,1.742048467,0.00704404,2.741329047,8.45E-08,1.61E-08,1.26E-07,6.24E-06,0.00012202,0.00011947,3.37E-05,2.58E-08,9.42E-09,5.98E-05,1.06E-05,APO,0.44392
bK19O03Y,3843430,       (2019 OY3),2019 OY3,,,Y,Y,19.5,,,,12,2459000.5,59000,20200531,J2000,0.472953808,1.857845494,0.979170393,48.66220575,297.4275028,350.852466,123.5400851,2.736520596,0.389215102,2458683.092,20190718.59,924.9384151,2.532343368,0.0325326,12.66071194,1.74E-07,3.50E-07,1.49E-07,5.13E-05,2.42E-05,6.36E-05,1.76E-05,5.16E-07,1.10E-07,4.94E-05,0.00026161,APO,0.4004
bK19P01G,3843508,       (2019 PG1),2019 PG1,,,Y,Y,20.6,,,,10,2459000.5,59000,20200531,J2000,0.593493042,2.457051429,0.998808502,20.3517381,281.6394465,13.5585553,79.45038005,3.915294356,0.255907317,2458690.035,20190725.53,1406.759308,3.851497077,0.00697325,2.713779703,2.11E-05,0.00012751,1.48E-07,0.00036365,0.00026037,0.00012204,0.0061857,0.00020318,1.99E-05,3.87E-05,0.10951,APO,0.44546
bK19Q00G,3843572,       (2019 QG),2019 QG,,,Y,Y,21.7,,,,6,2459000.5,59000,20200531,J2000,0.238234239,0.822004527,0.626174904,12.63043349,290.266476,216.0498087,197.8016459,1.017834151,1.322491105,2459123.146,20200930.65,272.2135511,0.745280085,0.0451301,17.56328102,7.92E-08,1.26E-08,6.84E-08,6.35E-05,0.00010984,8.23E-05,8.99E-05,1.56E-08,3.04E-08,7.00E-05,6.25E-06,ATE,0.58406
bK19Q00T,3843577,       (2019 QT),2019 QT,,,Y,Y,21.2,,,,7,2459000.5,59000,20200531,J2000,0.829558159,2.220513517,0.378468413,4.4409571,236.6409801,214.8820065,62.90109734,4.062558622,0.297868064,2458789.329,20191101.83,1208.588782,3.308935747,0.042529,16.55101093,0.00034615,0.0028412,0.00028446,0.0020291,0.027431,0.016685,0.11668,0.0051982,0.0005717,0.013588,2.3197,APO,0.52188
bK19Q00X,3843589,       (2019 QX),2019 QX,,,Y,Y,19.8,,,,JPL 16,2459000.5,59000,20200531,J2000,0.62920921,2.154868137,0.799005258,27.15498807,316.6372347,119.0902729,62.06654669,3.510731016,0.311582476,2458801.302,20191113.8,1155.392319,3.163291771,0.00798346,3.106923128,2.25E-06,1.18E-05,6.35E-07,8.57E-05,6.13E-05,6.36E-05,0.00049104,1.91E-05,2.55E-06,6.37E-05,0.0094516,APO,0.37065
bK19Q01Y,3843612,       (2019 QY1),2019 QY1,,,Y,Y,20.8,,,,13,2459000.5,59000,20200531,J2000,0.469948683,1.746601415,0.92578838,27.40876424,236.072538,156.8151935,91.95838753,2.567414449,0.426985732,2458785.134,20191028.63,843.1195082,2.308335409,0.0359487,13.99015558,6.94E-08,1.20E-08,1.18E-07,1.30E-05,1.92E-05,2.25E-05,8.45E-06,1.76E-08,4.40E-09,1.88E-05,8.69E-06,APO,0.44319
bK19Q02D,3843615,       (2019 QD2),2019 QD2,,,Y,Y,21.6,,,,12,2459000.5,59000,20200531,J2000,0.46033575,1.804086503,0.97360099,11.9676072,271.7106155,18.29033029,126.4152653,2.634572016,0.40674108,2458689.7,20190725.2,885.0839451,2.423227776,0.0237014,9.223873838,5.81E-05,0.00019336,6.41E-07,0.00085228,0.0018224,0.00178,0.020662,0.00028237,6.54E-05,0.00083965,0.14229,APO,0.52884
bK19Q06D,3843701,       (2019 QD6),2019 QD6,,,Y,Y,21.7,,,,JPL 11,2459000.5,59000,20200531,J2000,0.65561008,2.818224671,0.970568168,14.55838387,35.81505355,10.86043361,44.19049451,4.665881174,0.208324647,2458788.377,20191031.88,1728.072049,4.731203419,0.0147191,5.728232147,1.40E-05,0.00011346,2.86E-07,0.00018019,0.00010577,7.48E-05,0.0026505,0.00018785,1.26E-05,9.02E-05,0.10436,APO,0.57059
bK19R00C,3843758,       (2019 RC),2019 RC,,,Y,Y,21.8,,,,18,2459000.5,59000,20200531,J2000,0.508017774,2.048153861,1.007655296,22.89276218,175.0504613,202.2487255,80.20999499,3.088652427,0.336248384,2458761.956,20191005.46,1070.637115,2.931244668,0.0281344,10.94906445,7.69E-07,3.07E-06,1.17E-07,2.80E-05,4.24E-06,4.35E-05,0.000183,4.63E-06,7.56E-07,3.35E-05,0.0024057,APO,0.35394
bK19R00W,3843775,       (2019 RW),2019 RW,,,Y,Y,22,,,,JPL 5,2458731.5,58731,20190905,J2000,0.580410331,2.280218155,0.95675598,4.828843789,310.2570757,311.2594516,19.37073184,3.60368033,0.286246032,2458663.828,20190629.33,1257.659355,3.443283655,0.0219919,8.558587723,0.0018113,0.010441,0.00025862,0.0067991,0.025295,0.061615,0.14656,0.016501,0.0019661,0.047242,8.6383,APO,0.42615
bK19R03U,3843858,       (2019 RU3),2019 RU3,,,Y,Y,18.2,,,,5,2459000.5,59000,20200531,J2000,0.776227006,1.628829457,0.364488044,34.21644816,40.22075673,110.7281988,94.73383987,2.89317087,0.474122594,2458800.691,20191113.19,759.2972885,2.078842679,0.0499186,19.42682156,0.00019701,0.0017205,6.43E-05,0.00435,0.0073239,0.021697,0.1468,0.0030559,0.0007512,0.0069464,1.203,APO,0.41503
bK19R03V,3843857,       (2019 RV3),2019 RV3,,,Y,Y,19.7,,,,9,2459000.5,59000,20200531,J2000,0.613451455,2.238960621,0.865466971,6.970482911,352.364962,125.8658379,52.45834215,3.612454272,0.294194393,2458822.188,20191204.69,1223.680699,3.350255164,0.0111445,4.337105065,0.000183,0.0012095,5.79E-05,0.00083363,0.0053286,0.013256,0.040112,0.0019515,0.00023839,0.0081412,0.99155,APO,0.42992
